NORAD_CAT_ID,OBJECT_NAME,OBJECT_TYPE,EPOCH,MEAN_MOTION,ECCENTRICITY,INCLINATION,RA_OF_ASC_NODE,ARG_OF_PERICENTER,MEAN_ANOMALY,BSTAR,MEAN_MOTION_DOT,MEAN_MOTION_DDOT,TLE_LINE0,TLE_LINE1,TLE_LINE2,SEMIMAJOR_AXIS,PERIOD,APOGEE,PERIGEE,DECAYED
49449.0,STARLINK-3137,PAYLOAD,2023-05-30 05:12:04,15.08821813,0.0001224,53.2163,93.2688,107.7937,252.3189,0.00018573,2.668e-05,0.0,0 STARLINK-3137,1 49449U 21104AT  23150.21671418  .00002668  00000-0  18573-3 0  9998,2 49449  53.2163  93.2688 0001224 107.7937 252.3189 15.08821813 85629,6917.936,95.439,540.648,538.954,0.0
49449.0,STARLINK-3137,PAYLOAD,2023-05-31 03:27:27,15.08843459,0.0001233,53.218,89.1043,117.2594,242.8524,5.4588e-05,5.81e-06,0.0,0 STARLINK-3137,1 49449U 21104AT  23151.14406372  .00000581  00000-0  54588-4 0  9995,2 49449  53.2180  89.1043 0001233 117.2594 242.8524 15.08843459 86844,6917.87,95.437,540.588,538.882,0.0
49449.0,STARLINK-3137,PAYLOAD,2023-06-01 04:53:36,15.08850598,0.000142,53.2178,84.3438,109.2363,250.8783,0.00016166,2.287e-05,0.0,0 STARLINK-3137,1 49449U 21104AT  23152.20389757  .00002287  00000-0  16166-3 0  9994,2 49449  53.2178  84.3438 0001420 109.2363 250.8783 15.08850598 87006,6917.848,95.437,540.695,538.731,0.0
49449.0,STARLINK-3137,PAYLOAD,2023-06-02 01:33:38,15.08830748,0.0001524,53.2181,80.4785,100.3296,259.7868,8.391e-05,1.047e-05,0.0,0 STARLINK-3137,1 49449U 21104AT  23153.06503447  .00001047  00000-0  83910-4 0  9998,2 49449  53.2181  80.4785 0001524 100.3296 259.7868 15.08830748 87135,6917.909,95.438,540.828,538.719,0.0
49449.0,STARLINK-3137,PAYLOAD,2023-06-02 04:44:25,15.08833746,0.0001572,53.2179,79.8836,100.6156,259.5013,0.00010624,1.403e-05,0.0,0 STARLINK-3137,1 49449U 21104AT  23153.19751250  .00001403  00000-0  10624-3 0  9996,2 49449  53.2179  79.8836 0001572 100.6156 259.5013 15.08833746 86075,6917.9,95.438,540.852,538.677,0.0
49449.0,STARLINK-3137,PAYLOAD,2023-06-03 18:53:40,15.08839127,0.0001563,53.2174,72.7482,90.989,269.1282,7.1932e-05,8.57e-06,0.0,0 STARLINK-3137,1 49449U 21104AT  23154.78727534  .00000857  00000-0  71932-4 0  9992,2 49449  53.2174  72.7482 0001563  90.9890 269.1282 15.08839127 87395,6917.883,95.438,540.829,538.667,0.0
49449.0,STARLINK-3137,PAYLOAD,2023-06-03 22:04:26,15.08841674,0.0001566,53.2173,72.1538,90.7927,269.3245,9.1381e-05,1.167e-05,0.0,0 STARLINK-3137,1 49449U 21104AT  23154.91975333  .00001167  00000-0  91381-4 0  9994,2 49449  53.2173  72.1538 0001566  90.7927 269.3245 15.08841674 86336,6917.875,95.437,540.824,538.657,0.0
49449.0,STARLINK-3137,PAYLOAD,2023-06-04 01:15:12,15.08845094,0.0001526,53.2173,71.5593,89.1138,271.0029,0.00011785,1.588e-05,0.0,0 STARLINK-3137,1 49449U 21104AT  23155.05223042  .00001588  00000-0  11785-3 0  9999,2 49449  53.2173  71.5593 0001526  89.1138 271.0029 15.08845094 87434,6917.865,95.437,540.785,538.674,0.0
49449.0,STARLINK-3137,PAYLOAD,2023-06-04 18:44:27,15.08837295,0.0001486,53.2169,68.2899,88.8023,271.314,6.4567e-05,7.4e-06,0.0,0 STARLINK-3137,1 49449U 21104AT  23155.78087842  .00000740  00000-0  64567-4 0  9991,2 49449  53.2169  68.2899 0001486  88.8023 271.3140 15.08837295 87548,6917.889,95.438,540.782,538.726,0.0
49449.0,STARLINK-3137,PAYLOAD,2023-06-04 21:55:14,15.08838666,0.0001472,53.2171,67.6955,87.2965,272.8196,7.3699e-05,8.85e-06,0.0,0 STARLINK-3137,1 49449U 21104AT  23155.91335731  .00000885  00000-0  73699-4 0  9995,2 49449  53.2171  67.6955 0001472  87.2965 272.8196 15.08838666 86482,6917.884,95.438,540.768,538.731,0.0
49449.0,STARLINK-3137,PAYLOAD,2023-06-05 04:16:46,15.08845789,0.0001471,53.2173,66.5038,86.1058,274.0103,0.00011186,1.493e-05,0.0,0 STARLINK-3137,1 49449U 21104AT  23156.17831128  .00001493  00000-0  11186-3 0  9993,2 49449  53.2173  66.5038 0001471  86.1058 274.0103 15.08845789 87605,6917.863,95.437,540.745,538.71,0.0
49449.0,STARLINK-3137,PAYLOAD,2023-06-05 10:38:18,15.08841668,0.0001395,53.2172,65.3154,88.8914,271.2238,6.6375e-05,7.69e-06,0.0,0 STARLINK-3137,1 49449U 21104AT  23156.44327471  .00000769  00000-0  66375-4 0  9990,2 49449  53.2172  65.3154 0001395  88.8914 271.2238 15.08841668 86569,6917.875,95.437,540.705,538.775,0.0
49449.0,STARLINK-3137,PAYLOAD,2023-06-05 13:49:05,15.08839458,0.0001634,53.2168,64.7215,87.4635,272.6545,-1.0953e-05,-4.62e-06,0.0,0 STARLINK-3137,1 49449U 21104AT  23156.57575991 -.00000462  00000-0 -10953-4 0  9999,2 49449  53.2168  64.7215 0001634  87.4635 272.6545 15.08839458 87668,6917.882,95.438,540.877,538.617,0.0
49449.0,STARLINK-3137,PAYLOAD,2023-06-05 20:10:38,15.08832875,0.0001617,53.2166,63.531,99.7763,260.3411,-5.3392e-05,-1.137e-05,0.0,0 STARLINK-3137,1 49449U 21104AT  23156.84072474 -.00001137  00000-0 -53392-4 0  9991,2 49449  53.2166  63.5310 0001617  99.7763 260.3411 15.08832875 86625,6917.902,95.438,540.886,538.649,0.0
49449.0,STARLINK-3137,PAYLOAD,2023-06-06 12:04:29,15.08837327,0.0001511,53.2179,60.5597,92.2748,267.8418,2.0798e-05,4.3e-07,0.0,0 STARLINK-3137,1 49449U 21104AT  23157.50312055  .00000043  00000-0  20798-4 0  9994,2 49449  53.2179  60.5597 0001511  92.2748 267.8418 15.08837327 86724,6917.889,95.438,540.799,538.708,0.0
49449.0,STARLINK-3137,PAYLOAD,2023-06-06 20:01:25,15.08834114,0.0001525,53.2172,59.0721,93.9701,266.1465,1.7858e-05,-4e-08,0.0,0 STARLINK-3137,1 49449U 21104AT  23157.83432363 -.00000004  00000-0  17858-4 0  9996,2 49449  53.2172  59.0721 0001525  93.9701 266.1465 15.08834114 86771,6917.898,95.438,540.818,538.708,0.0
49449.0,STARLINK-3137,PAYLOAD,2023-06-07 02:22:57,15.08845575,0.0001387,53.2173,57.8816,92.2219,267.8932,3.3882e-05,2.51e-06,0.0,0 STARLINK-3137,1 49449U 21104AT  23158.09927602  .00000251  00000-0  33882-4 0  9998,2 49449  53.2173  57.8816 0001387  92.2219 267.8932 15.08845575 87899,6917.863,95.437,540.688,538.769,0.0
49449.0,STARLINK-3137,PAYLOAD,2023-06-07 21:27:35,15.08831073,0.0001417,53.217,54.3126,84.7309,275.3844,9.1164e-05,1.163e-05,0.0,0 STARLINK-3137,1 49449U 21104AT  23158.89416593  .00001163  00000-0  91164-4 0  9998,2 49449  53.2170  54.3126 0001417  84.7309 275.3844 15.08831073 86930,6917.908,95.438,540.753,538.792,0.0
49449.0,STARLINK-3137,PAYLOAD,2023-06-08 02:13:44,15.08839265,0.000125,53.2174,53.4215,92.2967,267.8168,8.0366e-05,9.91e-06,0.0,0 STARLINK-3137,1 49449U 21104AT  23159.09288118  .00000991  00000-0  80366-4 0  9991,2 49449  53.2174  53.4215 0001250  92.2967 267.8168 15.08839265 88042,6917.883,95.438,540.612,538.883,0.0
49449.0,STARLINK-3137,PAYLOAD,2023-06-09 10:01:27,15.08847367,0.0001152,53.2183,47.4727,103.7471,256.3649,6.2043e-05,7e-06,0.0,0 STARLINK-3137,1 49449U 21104AT  23160.41767548  .00000700  00000-0  62043-4 0  9998,2 49449  53.2183  47.4727 0001152 103.7471 256.3649 15.08847367 88243,6917.858,95.437,540.52,538.926,0.0
49449.0,STARLINK-3137,PAYLOAD,2023-06-09 16:23:00,15.08840212,0.0001172,53.2167,46.2879,84.5585,275.5541,5.1814e-05,5.37e-06,0.0,0 STARLINK-3137,1 49449U 21104AT  23160.68264193  .00000537  00000-0  51814-4 0  9997,2 49449  53.2167  46.2879 0001172  84.5585 275.5541 15.08840212 88284,6917.88,95.438,540.556,538.934,0.0
49449.0,STARLINK-3137,PAYLOAD,2023-06-10 09:52:15,15.08837172,0.0001329,53.2179,43.013,98.4563,261.658,-4.8313e-06,-3.65e-06,0.0,0 STARLINK-3137,1 49449U 21104AT  23161.41128483 -.00000365  00000-0 -48313-5 0  9992,2 49449  53.2179  43.0130 0001329  98.4563 261.6580 15.08837172 87319,6917.889,95.438,540.673,538.835,0.0
49449.0,STARLINK-3137,PAYLOAD,2023-06-10 22:35:19,15.08841875,0.0001315,53.2174,40.6355,84.0043,276.1099,-7.1127e-06,-4.01e-06,0.0,0 STARLINK-3137,1 49449U 21104AT  23161.94120277 -.00000401  00000-0 -71127-5 0  9993,2 49449  53.2174  40.6355 0001315  84.0043 276.1099 15.08841875 87394,6917.875,95.437,540.649,538.83,0.0
49449.0,STARLINK-3137,PAYLOAD,2023-06-11 01:46:06,15.08844213,0.0001333,53.2164,40.0401,98.1158,261.9985,-2.7927e-05,-7.32e-06,0.0,0 STARLINK-3137,1 49449U 21104AT  23162.07368106 -.00000732  00000-0 -27927-4 0  9998,2 49449  53.2164  40.0401 0001333  98.1158 261.9985 15.08844213 88499,6917.868,95.437,540.655,538.81,0.0
49449.0,STARLINK-3137,PAYLOAD,2023-06-11 22:26:06,15.08840237,0.0001558,53.2171,36.1735,90.8653,269.2518,4.2874e-05,3.94e-06,0.0,0 STARLINK-3137,1 49449U 21104AT  23162.93480226  .00000394  00000-0  42874-4 0  9991,2 49449  53.2171  36.1735 0001558  90.8653 269.2518 15.08840237 87541,6917.88,95.438,540.822,538.667,0.0
49449.0,STARLINK-3137,PAYLOAD,2023-06-12 01:36:53,15.08842788,0.0001392,53.2172,35.5786,89.494,270.6212,5.4224e-05,5.75e-06,0.0,0 STARLINK-3137,1 49449U 21104AT  23163.06728024  .00000575  00000-0  54224-4 0  9990,2 49449  53.2172  35.5786 0001392  89.4940 270.6212 15.08842788 87562,6917.872,95.437,540.7,538.774,0.0
49449.0,STARLINK-3137,PAYLOAD,2023-06-12 22:16:54,15.08836628,0.0001409,53.2168,31.712,90.8484,269.267,4.323e-05,4e-06,0.0,0 STARLINK-3137,1 49449U 21104AT  23163.92840548  .00000400  00000-0  43230-4 0  9993,2 49449  53.2168  31.7120 0001409  90.8484 269.2670 15.08836628 87697,6917.891,95.438,540.73,538.781,0.0
49449.0,STARLINK-3137,PAYLOAD,2023-06-13 17:21:32,15.08837755,0.0001127,53.2175,28.1461,90.0429,270.0692,-3.7709e-05,-8.88e-06,0.0,0 STARLINK-3137,1 49449U 21104AT  23164.72328970 -.00000888  00000-0 -37709-4 0  9998,2 49449  53.2175  28.1461 0001127  90.0429 270.0692 15.08837755 87811,6917.887,95.438,540.532,538.973,0.0
49449.0,STARLINK-3137,PAYLOAD,2023-06-13 23:43:04,15.08842069,0.000113,53.2176,26.956,85.4375,274.6746,1.1372e-06,-2.7e-06,0.0,0 STARLINK-3137,1 49449U 21104AT  23164.98824611 -.00000270  00000-0  11372-5 0  9992,2 49449  53.2176  26.9560 0001130  85.4375 274.6746 15.08842069 88938,6917.874,95.437,540.521,538.957,0.0
49449.0,STARLINK-3137,PAYLOAD,2023-06-14 14:01:33,15.08815721,9.63e-05,53.2176,24.2801,89.6398,270.4705,0.00028998,4.327e-05,0.0,0 STARLINK-3137,1 49449U 21104AT  23165.58441721  .00004327  00000-0  28998-3 0  9992,2 49449  53.2176  24.2801 0000963  89.6398 270.4705 15.08815721 87945,6917.955,95.439,540.486,539.153,0.0
